;Key: G1 = move, G2 = raise pen, G3 = lower pen, M1 = end page

; Circle 1 (Top) - Center: (100, 130)
G2
G1 X150.00 Y130.00
G3
G1 X149.24 Y138.68
G1 X146.98 Y147.10
G1 X143.30 Y155.00
G1 X138.30 Y162.14
G1 X132.14 Y168.30
G1 X125.00 Y173.30
G1 X117.10 Y176.98
G1 X108.68 Y179.24
G1 X100.00 Y180.00
G1 X91.32 Y179.24
G1 X82.90 Y176.98
G1 X75.00 Y173.30
G1 X67.86 Y168.30
G1 X61.70 Y162.14
G1 X56.70 Y155.00
G1 X53.02 Y147.10
G1 X50.76 Y138.68
G1 X50.00 Y130.00
G1 X50.76 Y121.32
G1 X53.02 Y112.90
G1 X56.70 Y105.00
G1 X61.70 Y97.86
G1 X67.86 Y91.70
G1 X75.00 Y86.70
G1 X82.90 Y83.02
G1 X91.32 Y80.76
G1 X100.00 Y80.00
G1 X108.68 Y80.76
G1 X117.10 Y83.02
G1 X125.00 Y86.70
G1 X132.14 Y91.70
G1 X138.30 Y97.86
G1 X143.30 Y105.00
G1 X146.98 Y112.90
G1 X149.24 Y121.32
G1 X150.00 Y130.00

; Circle 2 (Bottom-Left) - Center: (75, 86.7)
G2
G1 X125.00 Y86.70
G3
G1 X124.24 Y95.38
G1 X121.98 Y103.80
G1 X118.30 Y111.70
G1 X113.30 Y118.84
G1 X107.14 Y125.00
G1 X100.00 Y130.00
G1 X92.10 Y133.68
G1 X83.68 Y135.94
G1 X75.00 Y136.70
G1 X66.32 Y135.94
G1 X57.90 Y133.68
G1 X50.00 Y130.00
G1 X42.86 Y125.00
G1 X36.70 Y118.84
G1 X31.70 Y111.70
G1 X28.02 Y103.80
G1 X25.76 Y95.38
G1 X25.00 Y86.70
G1 X25.76 Y78.02
G1 X28.02 Y69.60
G1 X31.70 Y61.70
G1 X36.70 Y54.56
G1 X42.86 Y48.40
G1 X50.00 Y43.40
G1 X57.90 Y39.72
G1 X66.32 Y37.46
G1 X75.00 Y36.70
G1 X83.68 Y37.46
G1 X92.10 Y39.72
G1 X100.00 Y43.40
G1 X107.14 Y48.40
G1 X113.30 Y54.56
G1 X118.30 Y61.70
G1 X121.98 Y69.60
G1 X124.24 Y78.02
G1 X125.00 Y86.70

; Circle 3 (Bottom-Right) - Center: (125, 86.7)
G2
G1 X175.00 Y86.70
G3
G1 X174.24 Y95.38
G1 X171.98 Y103.80
G1 X168.30 Y111.70
G1 X163.30 Y118.84
G1 X157.14 Y125.00
G1 X150.00 Y130.00
G1 X142.10 Y133.68
G1 X133.68 Y135.94
G1 X125.00 Y136.70
G1 X116.32 Y135.94
G1 X107.90 Y133.68
G1 X100.00 Y130.00
G1 X92.86 Y125.00
G1 X86.70 Y118.84
G1 X81.70 Y111.70
G1 X78.02 Y103.80
G1 X75.76 Y95.38
G1 X75.00 Y86.70
G1 X75.76 Y78.02
G1 X78.02 Y69.60
G1 X81.70 Y61.70
G1 X86.70 Y54.56
G1 X92.86 Y48.40
G1 X100.00 Y43.40
G1 X107.90 Y39.72
G1 X116.32 Y37.46
G1 X125.00 Y36.70
G1 X133.68 Y37.46
G1 X142.10 Y39.72
G1 X150.00 Y43.40
G1 X157.14 Y48.40
G1 X163.30 Y54.56
G1 X168.30 Y61.70
G1 X171.98 Y69.60
G1 X174.24 Y78.02
G1 X175.00 Y86.70

; Finish - Raise pen and end page
G2
M1