G0 ;stop
G1 X190.00 Y100.00 ;move to start
G3 ;lower pen
G1 X189.82 Y105.65 ;move
G1 X189.29 Y111.28 ;move
G1 X188.41 Y116.88 ;move
G1 X187.18 Y122.43 ;move
G1 X185.60 Y127.91 ;move
G1 X183.68 Y133.30 ;move
G1 X181.42 Y138.58 ;move
G1 X178.83 Y143.74 ;move
G1 X175.92 Y148.76 ;move
G1 X172.68 Y153.62 ;move
G1 X169.14 Y158.31 ;move
G1 X165.29 Y162.81 ;move
G1 X161.16 Y167.11 ;move
G1 X156.75 Y171.19 ;move
G1 X152.08 Y175.04 ;move
G1 X147.16 Y178.64 ;move
G1 X142.00 Y181.98 ;move
G1 X136.63 Y185.05 ;move
G1 X131.06 Y187.84 ;move
G1 X125.30 Y190.33 ;move
G1 X119.37 Y192.53 ;move
G1 X113.29 Y194.42 ;move
G1 X107.08 Y195.99 ;move
G1 X100.75 Y197.24 ;move
G1 X94.33 Y198.17 ;move
G1 X87.84 Y198.77 ;move
G1 X81.30 Y199.04 ;move
G1 X74.74 Y198.98 ;move
G1 X68.18 Y198.59 ;move
G1 X61.64 Y197.87 ;move
G1 X55.15 Y196.82 ;move
G1 X48.73 Y195.44 ;move
G1 X42.40 Y193.74 ;move
G1 X36.18 Y191.71 ;move
G1 X30.10 Y189.37 ;move
G1 X24.18 Y186.72 ;move
G1 X18.44 Y183.77 ;move
G1 X12.89 Y180.52 ;move
G1 X7.56 Y176.99 ;move
G1 X2.47 Y173.18 ;move
G1 X-2.36 Y169.10 ;move
G1 X-6.90 Y164.76 ;move
G1 X-11.13 Y160.18 ;move
G1 X-15.04 Y155.37 ;move
G1 X-18.60 Y150.34 ;move
G1 X-21.80 Y145.10 ;move
G1 X-24.63 Y139.67 ;move
G1 X-27.07 Y134.07 ;move
G1 X-29.11 Y128.30 ;move
G1 X-30.74 Y122.39 ;move
G1 X-31.95 Y116.35 ;move
G1 X-32.74 Y110.21 ;move
G1 X-33.09 Y103.97 ;move
G1 X-33.01 Y97.66 ;move
G1 X-32.50 Y91.31 ;move
G1 X-31.55 Y84.92 ;move
G1 X-30.18 Y78.53 ;move
G1 X-28.38 Y72.15 ;move
G1 X-26.16 Y65.80 ;move
G1 X-23.53 Y59.50 ;move
G1 X-20.50 Y53.27 ;move
G1 X-17.08 Y47.13 ;move
G1 X-13.29 Y41.10 ;move
G1 X-9.14 Y35.19 ;move
G1 X-4.65 Y29.43 ;move
G1 X0.17 Y23.82 ;move
G1 X5.32 Y18.39 ;move
G1 X10.77 Y13.15 ;move
G1 X16.51 Y8.12 ;move
G1 X22.52 Y3.32 ;move
G1 X28.78 Y-1.24 ;move
G1 X35.26 Y-5.54 ;move
G1 X41.94 Y-9.56 ;move
G1 X48.80 Y-13.29 ;move
G1 X55.82 Y-16.71 ;move
G1 X62.97 Y-19.82 ;move
G1 X70.23 Y-22.60 ;move
G1 X77.58 Y-25.04 ;move
G1 X85.00 Y-27.13 ;move
G1 X92.46 Y-28.87 ;move
G1 X99.94 Y-30.24 ;move
G1 X107.41 Y-31.25 ;move
G1 X114.86 Y-31.89 ;move
G1 X122.26 Y-32.15 ;move
G1 X129.58 Y-32.04 ;move
G1 X136.81 Y-31.55 ;move
G1 X143.92 Y-30.68 ;move
G1 X150.89 Y-29.43 ;move
G1 X157.69 Y-27.81 ;move
G1 X164.30 Y-25.82 ;move
G1 X170.70 Y-23.47 ;move
G1 X176.86 Y-20.76 ;move
G1 X182.77 Y-17.70 ;move
G1 X188.40 Y-14.30 ;move
G1 X193.73 Y-10.57 ;move
G1 X198.74 Y-6.52 ;move
G1 X203.41 Y-2.17 ;move
G1 X207.72 Y2.47 ;move
G1 X211.66 Y7.39 ;move
G1 X215.20 Y12.58 ;move
G1 X218.33 Y18.02 ;move
G1 X221.03 Y23.68 ;move
G1 X223.29 Y29.55 ;move
G1 X225.09 Y35.60 ;move
G1 X226.43 Y41.81 ;move
G1 X227.30 Y48.15 ;move
G1 X227.69 Y54.59 ;move
G1 X227.60 Y61.10 ;move
G1 X227.02 Y67.66 ;move
G1 X225.96 Y74.24 ;move
G1 X224.42 Y80.82 ;move
G1 X222.40 Y87.36 ;move
G1 X219.92 Y93.85 ;move
G1 X216.97 Y100.25 ;move
G1 X213.58 Y106.53 ;move
G1 X209.75 Y112.67 ;move
G1 X205.50 Y118.64 ;move
G1 X200.83 Y124.41 ;move
G1 X195.78 Y129.96 ;move
G1 X190.35 Y135.26 ;move
G1 X190.00 Y100.00 ;return to initial vertex
G2 ;lift pen
G1 X10.00 Y10.00 ;return home
M1 ;end page note

